{"type": "FeatureCollection", "features": [ {"type": "Feature", "properties": {"norad_id": 31821, "name": "FENGYUN 1C DEB", "group": "fengyun-1c-debris", "lat": -1.4638131133739767, "lon": 49.06213008619677, "alt_km": 902.5184957822739, "timestamp": "2025-12-10T04:57:29.902562+00:00", "meta": {"OBJECT_NAME": "FENGYUN 1C DEB", "OBJECT_ID": "1999-025CHK", "EPOCH": "2025-12-08T12:09:14.009760", "MEAN_MOTION": 14.41688123, "ECCENTRICITY": 0.0220877, "INCLINATION": 98.1556, "RA_OF_ASC_NODE": 227.6467, "ARG_OF_PERICENTER": 27.3046, "MEAN_ANOMALY": 333.9554, "EPHEMERIS_TYPE": 0, "CLASSIFICATION_TYPE": "U", "NORAD_CAT_ID": 31821, "ELEMENT_SET_NO": 999, "REV_AT_EPOCH": 93600, "BSTAR": 0.0057642555, "MEAN_MOTION_DOT": 0.000252, "MEAN_MOTION_DDOT": 0}, "tle": {"line1": "1 31821U 99025CHK 25342.50641215  .00025200  00000+0  57643-2 0  9995", "line2": "2 31821  98.1556 227.6467 0220877  27.3046 333.9554 14.41688123936001"}}, "geometry": {"type": "Point", "coordinates": [49.06213008619677, -1.4638131133739767]}}, {"type": "Feature", "properties": {"norad_id": 31823, "name": "FENGYUN 1C DEB", "group": "fengyun-1c-debris", "lat": 49.1111300711277, "lon": -98.80856481311017, "alt_km": 673.732081111887, "timestamp": "2025-12-10T04:57:29.902573+00:00", "meta": {"OBJECT_NAME": "FENGYUN 1C DEB", "OBJECT_ID": "1999-025CHM", "EPOCH": "2025-12-09T16:53:42.258048", "MEAN_MOTION": 14.65619683, "ECCENTRICITY": 0.0037128, "INCLINATION": 99.511, "RA_OF_ASC_NODE": 69.4464, "ARG_OF_PERICENTER": 228.5668, "MEAN_ANOMALY": 131.2339, "EPHEMERIS_TYPE": 0, "CLASSIFICATION_TYPE": "U", "NORAD_CAT_ID": 31823, "ELEMENT_SET_NO": 999, "REV_AT_EPOCH": 96673, "BSTAR": 0.0021039, "MEAN_MOTION_DOT": 0.00011501, "MEAN_MOTION_DDOT": 0}, "tle": {"line1": "1 31823U 99025CHM 25343.70396132  .00011501  00000+0  21039-2 0  9994", "line2": "2 31823  99.5110  69.4464 0037128 228.5668 131.2339 14.65619683966737"}}, "geometry": {"type": "Point", "coordinates": [-98.80856481311017, 49.1111300711277]}}, {"type": "Feature", "properties": {"norad_id": 31825, "name": "FENGYUN 1C DEB", "group": "fengyun-1c-debris", "lat": -59.407031475656616, "lon": 149.0592947837598, "alt_km": 856.4703452497979, "timestamp": "2025-12-10T04:57:29.902583+00:00", "meta": {"OBJECT_NAME": "FENGYUN 1C DEB", "OBJECT_ID": "1999-025CHP", "EPOCH": "2025-12-09T05:51:39.972096", "MEAN_MOTION": 14.21627347, "ECCENTRICITY": 0.016579, "INCLINATION": 98.5906, "RA_OF_ASC_NODE": 342.9358, "ARG_OF_PERICENTER": 348.4988, "MEAN_ANOMALY": 11.2421, "EPHEMERIS_TYPE": 0, "CLASSIFICATION_TYPE": "U", "NORAD_CAT_ID": 31825, "ELEMENT_SET_NO": 999, "REV_AT_EPOCH": 95572, "BSTAR": 0.0011959, "MEAN_MOTION_DOT": 2.973e-05, "MEAN_MOTION_DDOT": 0}, "tle": {"line1": "1 31825U 99025CHP 25343.24421264  .00002973  00000+0  11959-2 0  9993", "line2": "2 31825  98.5906 342.9358 0165790 348.4988  11.2421 14.21627347955720"}}, "geometry": {"type": "Point", "coordinates": [149.0592947837598, -59.407031475656616]}}, {"type": "Feature", "properties": {"norad_id": 31826, "name": "FENGYUN 1C DEB", "group": "fengyun-1c-debris", "lat": 52.226640059682666, "lon": 166.69579148653395, "alt_km": 791.1817950556797, "timestamp": "2025-12-10T04:57:29.902594+00:00", "meta": {"OBJECT_NAME": "FENGYUN 1C DEB", "OBJECT_ID": "1999-025CHQ", "EPOCH": "2025-12-07T22:21:17.489088", "MEAN_MOTION": 14.19262669, "ECCENTRICITY": 0.01237706, "INCLINATION": 98.6257, "RA_OF_ASC_NODE": 333.1845, "ARG_OF_PERICENTER": 203.2304, "MEAN_ANOMALY": 186.995, "EPHEMERIS_TYPE": 0, "CLASSIFICATION_TYPE": "U", "NORAD_CAT_ID": 31826, "ELEMENT_SET_NO": 999, "REV_AT_EPOCH": 95746, "BSTAR": 0.00053844954, "MEAN_MOTION_DOT": 1.176e-05, "MEAN_MOTION_DDOT": 0}, "tle": {"line1": "1 31826U 99025CHQ 25341.93145242  .00001176  00000+0  53845-3 0  9992", "line2": "2 31826  98.6257 333.1845 0123770 203.2304 186.9950 14.19262669957465"}}, "geometry": {"type": "Point", "coordinates": [166.69579148653395, 52.226640059682666]}}, {"type": "Feature", "properties": {"norad_id": 31829, "name": "FENGYUN 1C DEB", "group": "fengyun-1c-debris", "lat": -56.75736299540706, "lon": -39.56130135814566, "alt_km": 889.0639510138317, "timestamp": "2025-12-10T04:57:29.902604+00:00", "meta": {"OBJECT_NAME": "FENGYUN 1C DEB", "OBJECT_ID": "1999-025CHT", "EPOCH": "2025-12-09T17:33:21.638016", "MEAN_MOTION": 13.88677973, "ECCENTRICITY": 0.0169074, "INCLINATION": 98.8354, "RA_OF_ASC_NODE": 153.7155, "ARG_OF_PERICENTER": 172.6411, "MEAN_ANOMALY": 209.5253, "EPHEMERIS_TYPE": 0, "CLASSIFICATION_TYPE": "U", "NORAD_CAT_ID": 31829, "ELEMENT_SET_NO": 999, "REV_AT_EPOCH": 94106, "BSTAR": 0.00075568, "MEAN_MOTION_DOT": 9.8e-06, "MEAN_MOTION_DDOT": 0}, "tle": {"line1": "1 31829U 99025CHT 25343.73150044  .00000980  00000+0  75568-3 0  9999", "line2": "2 31829  98.8354 153.7155 0169074 172.6411 209.5253 13.88677973941063"}}, "geometry": {"type": "Point", "coordinates": [-39.56130135814566, -56.75736299540706]}}, {"type": "Feature", "properties": {"norad_id": 31830, "name": "FENGYUN 1C DEB", "group": "fengyun-1c-debris", "lat": -66.97973404940848, "lon": 112.28666575220976, "alt_km": 843.0485466957316, "timestamp": "2025-12-10T04:57:29.902614+00:00", "meta": {"OBJECT_NAME": "FENGYUN 1C DEB", "OBJECT_ID": "1999-025CHU", "EPOCH": "2025-12-08T06:32:34.361088", "MEAN_MOTION": 13.83392164, "ECCENTRICITY": 0.01820132, "INCLINATION": 99.1645, "RA_OF_ASC_NODE": 88.0728, "ARG_OF_PERICENTER": 326.568, "MEAN_ANOMALY": 59.2383, "EPHEMERIS_TYPE": 0, "CLASSIFICATION_TYPE": "U", "NORAD_CAT_ID": 31830, "ELEMENT_SET_NO": 999, "REV_AT_EPOCH": 92678, "BSTAR": 0.0025930533, "MEAN_MOTION_DOT": 3.197e-05, "MEAN_MOTION_DDOT": 0}, "tle": {"line1": "1 31830U 99025CHU 25342.27261992  .00003197  00000+0  25931-2 0  9995", "line2": "2 31830  99.1645  88.0728 0182013 326.5680  59.2383 13.83392164926781"}}, "geometry": {"type": "Point", "coordinates": [112.28666575220976, -66.97973404940848]}}, {"type": "Feature", "properties": {"norad_id": 31834, "name": "FENGYUN 1C DEB", "group": "fengyun-1c-debris", "lat": -76.96825572301947, "lon": -14.884623307906086, "alt_km": 1008.0397832805356, "timestamp": "2025-12-10T04:57:29.902625+00:00", "meta": {"OBJECT_NAME": "FENGYUN 1C DEB", "OBJECT_ID": "1999-025CHY", "EPOCH": "2025-12-09T20:53:13.362720", "MEAN_MOTION": 14.03149473, "ECCENTRICITY": 0.016279, "INCLINATION": 98.3687, "RA_OF_ASC_NODE": 204.2994, "ARG_OF_PERICENTER": 85.6379, "MEAN_ANOMALY": 276.3369, "EPHEMERIS_TYPE": 0, "CLASSIFICATION_TYPE": "U", "NORAD_CAT_ID": 31834, "ELEMENT_SET_NO": 999, "REV_AT_EPOCH": 63670, "BSTAR": 0.00032699, "MEAN_MOTION_DOT": 5.35e-06, "MEAN_MOTION_DDOT": 0}, "tle": {"line1": "1 31834U 99025CHY 25343.87029355  .00000535  00000+0  32699-3 0  9994", "line2": "2 31834  98.3687 204.2994 0162790  85.6379 276.3369 14.03149473636709"}}, "geometry": {"type": "Point", "coordinates": [-14.884623307906086, -76.96825572301947]}}, {"type": "Feature", "properties": {"norad_id": 31837, "name": "FENGYUN 1C DEB", "group": "fengyun-1c-debris", "lat": 12.954765448193035, "lon": -118.40521604869942, "alt_km": 674.4671379285783, "timestamp": "2025-12-10T04:57:29.902635+00:00", "meta": {"OBJECT_NAME": "FENGYUN 1C DEB", "OBJECT_ID": "1999-025CJB", "EPOCH": "2025-12-06T11:05:58.197696", "MEAN_MOTION": 14.82076546, "ECCENTRICITY": 0.0094318, "INCLINATION": 98.102, "RA_OF_ASC_NODE": 55.9272, "ARG_OF_PERICENTER": 38.0956, "MEAN_ANOMALY": 322.6875, "EPHEMERIS_TYPE": 0, "CLASSIFICATION_TYPE": "U", "NORAD_CAT_ID": 31837, "ELEMENT_SET_NO": 999, "REV_AT_EPOCH": 98266, "BSTAR": 0.001865506, "MEAN_MOTION_DOT": 0.00015992, "MEAN_MOTION_DDOT": 0}, "tle": {"line1": "1 31837U 99025CJB 25340.46247914  .00015992  00000+0  18655-2 0  9990", "line2": "2 31837  98.1020  55.9272 0094318  38.0956 322.6875 14.82076546982667"}}, "geometry": {"type": "Point", "coordinates": [-118.40521604869942, 12.954765448193035]}}, {"type": "Feature", "properties": {"norad_id": 31838, "name": "FENGYUN 1C DEB", "group": "fengyun-1c-debris", "lat": -65.29748957311128, "lon": -164.5539125827929, "alt_km": 851.417154944801, "timestamp": "2025-12-10T04:57:29.902645+00:00", "meta": {"OBJECT_NAME": "FENGYUN 1C DEB", "OBJECT_ID": "1999-025CJC", "EPOCH": "2025-12-06T08:49:21.453024", "MEAN_MOTION": 14.21105731, "ECCENTRICITY": 0.00388378, "INCLINATION": 98.7183, "RA_OF_ASC_NODE": 31.1437, "ARG_OF_PERICENTER": 113.4762, "MEAN_ANOMALY": 303.75, "EPHEMERIS_TYPE": 0, "CLASSIFICATION_TYPE": "U", "NORAD_CAT_ID": 31838, "ELEMENT_SET_NO": 999, "REV_AT_EPOCH": 64486, "BSTAR": 0.0013391766, "MEAN_MOTION_DOT": 2.888e-05, "MEAN_MOTION_DDOT": 0}, "tle": {"line1": "1 31838U 99025CJC 25340.36760941  .00002888  00000+0  13392-2 0  9993", "line2": "2 31838  98.7183  31.1437 0038837 113.4762 303.7500 14.21105731644864"}}, "geometry": {"type": "Point", "coordinates": [-164.5539125827929, -65.29748957311128]}}, {"type": "Feature", "properties": {"norad_id": 31841, "name": "FENGYUN 1C DEB", "group": "fengyun-1c-debris", "lat": -75.73114089451452, "lon": -171.2571896476074, "alt_km": 695.1475878192732, "timestamp": "2025-12-10T04:57:29.902655+00:00", "meta": {"OBJECT_NAME": "FENGYUN 1C DEB", "OBJECT_ID": "1999-025CJF", "EPOCH": "2025-12-09T06:12:44.774784", "MEAN_MOTION": 14.03533428, "ECCENTRICITY": 0.0308721, "INCLINATION": 98.4185, "RA_OF_ASC_NODE": 152.251, "ARG_OF_PERICENTER": 315.3739, "MEAN_ANOMALY": 221.9811, "EPHEMERIS_TYPE": 0, "CLASSIFICATION_TYPE": "U", "NORAD_CAT_ID": 31841, "ELEMENT_SET_NO": 999, "REV_AT_EPOCH": 59290, "BSTAR": 0.0023276, "MEAN_MOTION_DOT": 5.531e-05, "MEAN_MOTION_DDOT": 0}, "tle": {"line1": "1 31841U 99025CJF 25343.25885156  .00005531  00000+0  23276-2 0  9994", "line2": "2 31841  98.4185 152.2510 0308721 315.3739 221.9811 14.03533428592904"}}, "geometry": {"type": "Point", "coordinates": [-171.2571896476074, -75.73114089451452]}}]}